STARLINK-1888
1 47171U 20088BB  26090.49389794  .00106765  00000+0  16991-2 0  9990
2 47171  53.0513 174.8150 0003069 322.1965  37.8828 15.52471805295539
